ORBCOMM FM37            
1 33064U 08031E   25223.05631140  .00001457  00000+0  21883-3 0  9993
2 33064  48.4403  82.7550 0005600 251.2510 264.5116 14.79921374922178
ORBCOMM FM40            
1 33065U 08031F   25223.29124154  .00001870  00000+0  25882-3 0  9994
2 33065  48.4425  64.7434 0006727 264.5944 265.5657 14.82222633922776
VESSELSAT 1             
1 37840U 11058C   25223.38751736  .00000350  00000+0  46504-4 0  9991
2 37840  19.9615 119.8653 0013731  74.2021 285.9897 14.11362109714119
ORBCOMM FM109           
1 40086U 14040A   25223.41030457  .00000616  00000+0  16859-3 0  9999
2 40086  47.0032 115.4712 0001980 250.0569 110.0103 14.58241826589124
ORBCOMM FM107           
1 40087U 14040B   25223.43617740  .00000563  00000+0  15702-3 0  9995
2 40087  47.0048 116.2922 0000955 201.6266 158.4579 14.58315547589205
ORBCOMM FM106           
1 40088U 14040C   25223.50840202  .00000857  00000+0  17421-3 0  9991
2 40088  47.0609 293.6210 0017399 320.6755  39.2872 14.69546280591616
ORBCOMM FM111           
1 40089U 14040D   25223.47003826  .00003190  00000+0  37781-3 0  9995
2 40089  47.0007 136.4866 0029536  97.0729 263.3528 14.86547743598453
ORBCOMM FM104           
1 40090U 14040E   25223.48542595  .00000592  00000+0  16888-3 0  9997
2 40090  47.0044 150.3348 0015628  96.6263 263.6401 14.56708376588686
